COSMOS 2251 DEB         
1 34924U 93036ADV 17345.93380441  .00000414  00000-0  12170-3 0  9998
2 34924  74.0436 165.4862 0072754 262.5822 222.1909 14.45454925453934
